[{"OBJECT_NAME":"STARLINK-5999","OBJECT_ID":"2023-083AK","EPOCH":"2026-03-09T22:00:01.999584","MEAN_MOTION":15.07013342,"ECCENTRICITY":6.738e-5,"INCLINATION":43.0007,"RA_OF_ASC_NODE":67.916,"ARG_OF_PERICENTER":272.4181,"MEAN_ANOMALY":323.8788,"EPHEMERIS_TYPE":0,"CLASSIFICATION_TYPE":"U","NORAD_CAT_ID":56909,"ELEMENT_SET_NO":999,"REV_AT_EPOCH":567,"BSTAR":0.0039179222,"MEAN_MOTION_DOT":0.00059977,"MEAN_MOTION_DDOT":0},{"OBJECT_NAME":"CZ-2D R\/B","OBJECT_ID":"2025-222C","EPOCH":"2026-03-09T11:30:40.430304","MEAN_MOTION":15.00214245,"ECCENTRICITY":0.0055472,"INCLINATION":34.9016,"RA_OF_ASC_NODE":128.5538,"ARG_OF_PERICENTER":301.6169,"MEAN_ANOMALY":57.9132,"EPHEMERIS_TYPE":0,"CLASSIFICATION_TYPE":"U","NORAD_CAT_ID":65853,"ELEMENT_SET_NO":999,"REV_AT_EPOCH":2424,"BSTAR":0.00024152549,"MEAN_MOTION_DOT":3.158e-5,"MEAN_MOTION_DDOT":0}]
